{
  "type": "FeatureCollection",
  "features": [
    {
      "type": "Feature",
      "properties": {
        "norad_id": 66954,
        "name": "HULIANWANG DIGUI-115",
        "group": "last-30-days",
        "lat": 75.60076493839095,
        "lon": -4.423553959344326,
        "alt_km": 1005.1578968589911,
        "timestamp": "2025-12-24T18:55:54.778171+00:00",
        "meta_object_name": "HULIANWANG DIGUI-115",
        "meta_object_id": "2025-287B",
        "meta_epoch": "2025-12-20T14:23:56.755680",
        "meta_mean_motion": 13.66603826,
        "meta_eccentricity": 0.00094984,
        "meta_inclination": 86.4975,
        "meta_ra_of_asc_node": 343.2967,
        "meta_arg_of_pericenter": 182.0064,
        "meta_mean_anomaly": 178.1058,
        "meta_ephemeris_type": 0,
        "meta_classification_type": "U",
        "meta_norad_cat_id": 66954,
        "meta_element_set_no": 999,
        "meta_rev_at_epoch": 160,
        "meta_bstar": -9.79328e-07,
        "meta_mean_motion_dot": 1.6e-07,
        "meta_mean_motion_ddot": 0,
        "tle_line1": "1 66954U 25287B   25354.59996245  .00000016  00000+0 -97933-6 0  9996",
        "tle_line2": "2 66954  86.4975 343.2967 0009498 182.0064 178.1058 13.66603826  1604"
      },
      "geometry": {
        "type": "Point",
        "coordinates": [
          -4.423553959344326,
          75.60076493839095
        ]
      }
    },
    {
      "type": "Feature",
      "properties": {
        "norad_id": 66955,
        "name": "HULIANWANG DIGUI-116",
        "group": "last-30-days",
        "lat": 86.19066951288295,
        "lon": 48.874489154642355,
        "alt_km": 1001.0550150881954,
        "timestamp": "2025-12-24T18:55:54.778181+00:00",
        "meta_object_name": "HULIANWANG DIGUI-116",
        "meta_object_id": "2025-287C",
        "meta_epoch": "2025-12-20T16:07:29.631072",
        "meta_mean_motion": 13.67009251,
        "meta_eccentricity": 0.00086607,
        "meta_inclination": 86.4918,
        "meta_ra_of_asc_node": 343.2556,
        "meta_arg_of_pericenter": 174.268,
        "meta_mean_anomaly": 185.8579,
        "meta_ephemeris_type": 0,
        "meta_classification_type": "U",
        "meta_norad_cat_id": 66955,
        "meta_element_set_no": 999,
        "meta_rev_at_epoch": 161,
        "meta_bstar": 0.00012368885,
        "meta_mean_motion_dot": 1.2e-06,
        "meta_mean_motion_ddot": 0,
        "tle_line1": "1 66955U 25287C   25354.67187073  .00000120  00000+0  12369-3 0  9999",
        "tle_line2": "2 66955  86.4918 343.2556 0008660 174.2680 185.8579 13.67009251  1610"
      },
      "geometry": {
        "type": "Point",
        "coordinates": [
          48.874489154642355,
          86.19066951288295
        ]
      }
    },
    {
      "type": "Feature",
      "properties": {
        "norad_id": 66956,
        "name": "HULIANWANG DIGUI-117",
        "group": "last-30-days",
        "lat": 70.7021357506513,
        "lon": 151.6947313724126,
        "alt_km": 997.13670324754,
        "timestamp": "2025-12-24T18:55:54.778191+00:00",
        "meta_object_name": "HULIANWANG DIGUI-117",
        "meta_object_id": "2025-287D",
        "meta_epoch": "2025-12-18T14:55:12.079776",
        "meta_mean_motion": 13.67770338,
        "meta_eccentricity": 0.00076767,
        "meta_inclination": 86.4971,
        "meta_ra_of_asc_node": 344.0126,
        "meta_arg_of_pericenter": 176.3616,
        "meta_mean_anomaly": 183.76,
        "meta_ephemeris_type": 0,
        "meta_classification_type": "U",
        "meta_norad_cat_id": 66956,
        "meta_element_set_no": 999,
        "meta_rev_at_epoch": 133,
        "meta_bstar": 1.0922436e-05,
        "meta_mean_motion_dot": 2.6e-07,
        "meta_mean_motion_ddot": 0,
        "tle_line1": "1 66956U 25287D   25352.62166759  .00000026  00000+0  10922-4 0  9990",
        "tle_line2": "2 66956  86.4971 344.0126 0007676 176.3616 183.7600 13.67770338  1332"
      },
      "geometry": {
        "type": "Point",
        "coordinates": [
          151.6947313724126,
          70.7021357506513
        ]
      }
    },
    {
      "type": "Feature",
      "properties": {
        "norad_id": 66957,
        "name": "HULIANWANG DIGUI-118",
        "group": "last-30-days",
        "lat": 69.74825445849848,
        "lon": 152.20148453259313,
        "alt_km": 999.2397712386564,
        "timestamp": "2025-12-24T18:55:54.778203+00:00",
        "meta_object_name": "HULIANWANG DIGUI-118",
        "meta_object_id": "2025-287E",
        "meta_epoch": "2025-12-21T00:50:13.849728",
        "meta_mean_motion": 13.6751011,
        "meta_eccentricity": 0.00054729,
        "meta_inclination": 86.4946,
        "meta_ra_of_asc_node": 343.1304,
        "meta_arg_of_pericenter": 170.9065,
        "meta_mean_anomaly": 189.2194,
        "meta_ephemeris_type": 0,
        "meta_classification_type": "U",
        "meta_norad_cat_id": 66957,
        "meta_element_set_no": 999,
        "meta_rev_at_epoch": 166,
        "meta_bstar": 0.00013223305,
        "meta_mean_motion_dot": 1.28e-06,
        "meta_mean_motion_ddot": 0,
        "tle_line1": "1 66957U 25287E   25355.03488252  .00000128  00000+0  13223-3 0  9993",
        "tle_line2": "2 66957  86.4946 343.1304 0005472 170.9065 189.2194 13.67510110  1668"
      },
      "geometry": {
        "type": "Point",
        "coordinates": [
          152.20148453259313,
          69.74825445849848
        ]
      }
    },
    {
      "type": "Feature",
      "properties": {
        "norad_id": 66958,
        "name": "CZ-6A R/B",
        "group": "last-30-days",
        "lat": 2.650883587690631,
        "lon": 161.35803760200588,
        "alt_km": 941.7495177877918,
        "timestamp": "2025-12-24T18:55:54.778215+00:00",
        "meta_object_name": "CZ-6A R/B",
        "meta_object_id": "2025-287F",
        "meta_epoch": "2025-12-24T06:02:41.158464",
        "meta_mean_motion": 13.94921326,
        "meta_eccentricity": 0.01071477,
        "meta_inclination": 86.5064,
        "meta_ra_of_asc_node": 341.7241,
        "meta_arg_of_pericenter": 67.5545,
        "meta_mean_anomaly": 293.6935,
        "meta_ephemeris_type": 0,
        "meta_classification_type": "U",
        "meta_norad_cat_id": 66958,
        "meta_element_set_no": 999,
        "meta_rev_at_epoch": 214,
        "meta_bstar": 3.2513032e-05,
        "meta_mean_motion_dot": 6.5e-07,
        "meta_mean_motion_ddot": 0,
        "tle_line1": "1 66958U 25287F   25358.25186526  .00000065  00000+0  32513-4 0  9994",
        "tle_line2": "2 66958  86.5064 341.7241 0107147  67.5545 293.6935 13.94921326  2143"
      },
      "geometry": {
        "type": "Point",
        "coordinates": [
          161.35803760200588,
          2.650883587690631
        ]
      }
    },
    {
      "type": "Feature",
      "properties": {
        "norad_id": 66959,
        "name": "STARLINK-35887",
        "group": "last-30-days",
        "lat": -17.370492340106594,
        "lon": -66.73523319086051,
        "alt_km": 367.39502743133835,
        "timestamp": "2025-12-24T18:55:54.778225+00:00",
        "meta_object_name": "STARLINK-35887",
        "meta_object_id": "2025-288A",
        "meta_epoch": "2025-12-24T06:00:02.000160",
        "meta_mean_motion": 15.69806468,
        "meta_eccentricity": 0.00013415,
        "meta_inclination": 43.0002,
        "meta_ra_of_asc_node": 96.8887,
        "meta_arg_of_pericenter": 283.429,
        "meta_mean_anomaly": 116.0154,
        "meta_ephemeris_type": 0,
        "meta_classification_type": "U",
        "meta_norad_cat_id": 66959,
        "meta_element_set_no": 999,
        "meta_rev_at_epoch": 368,
        "meta_bstar": -0.017617877,
        "meta_mean_motion_dot": -0.01918934,
        "meta_mean_motion_ddot": 0,
        "tle_line1": "1 66959U 25288A   25358.25002315 -.01918934  00000+0 -17618-1 0  9991",
        "tle_line2": "2 66959  43.0002  96.8887 0001341 283.4290 116.0154 15.69806468  3687"
      },
      "geometry": {
        "type": "Point",
        "coordinates": [
          -66.73523319086051,
          -17.370492340106594
        ]
      }
    },
    {
      "type": "Feature",
      "properties": {
        "norad_id": 66960,
        "name": "STARLINK-35879",
        "group": "last-30-days",
        "lat": -18.596635217670343,
        "lon": -65.18830176788386,
        "alt_km": 367.3009659415675,
        "timestamp": "2025-12-24T18:55:54.778236+00:00",
        "meta_object_name": "STARLINK-35879",
        "meta_object_id": "2025-288B",
        "meta_epoch": "2025-12-24T06:00:02.000160",
        "meta_mean_motion": 15.69809774,
        "meta_eccentricity": 0.00013606,
        "meta_inclination": 43.0003,
        "meta_ra_of_asc_node": 96.8839,
        "meta_arg_of_pericenter": 277.5693,
        "meta_mean_anomaly": 123.7866,
        "meta_ephemeris_type": 0,
        "meta_classification_type": "U",
        "meta_norad_cat_id": 66960,
        "meta_element_set_no": 999,
        "meta_rev_at_epoch": 368,
        "meta_bstar": -0.017602005,
        "meta_mean_motion_dot": -0.01917653,
        "meta_mean_motion_ddot": 0,
        "tle_line1": "1 66960U 25288B   25358.25002315 -.01917653  00000+0 -17602-1 0  9993",
        "tle_line2": "2 66960  43.0003  96.8839 0001360 277.5693 123.7866 15.69809774  3687"
      },
      "geometry": {
        "type": "Point",
        "coordinates": [
          -65.18830176788386,
          -18.596635217670343
        ]
      }
    }
  ]
}